ONEWEB-0650             
1 55813U 23029T   24028.32184204 -.00000077  00000+0 -22461-3 0  9991
2 55813  87.9201 118.3293 0002120  97.4793 262.6581 13.19726724 44035
ONEWEB-0652             
1 55814U 23029U   24028.61036996 -.00000141  00000+0 -41393-3 0  9995
2 55814  87.8964 103.0000 0001703 108.2352 251.8964 13.14503624 44993
ONEWEB-0653             
1 55815U 23029V   24028.59449865  .00000053  00000+0  10856-3 0  9996
2 55815  87.8968 102.9796 0001835 113.7011 246.4312 13.14505283 45022
ONEWEB-0654             
1 55816U 23029W   24028.58975567  .00000160  00000+0  39615-3 0  9992
2 55816  87.8963 102.9945 0001460 120.5971 239.5303 13.14503969 45043
ONEWEB-0656             
1 55817U 23029X   24028.60704196  .00000044  00000+0  77468-4 0  9994
2 55817  87.9166  87.6951 0001129  93.3969 266.7293 13.20773088 46232
ONEWEB-0657             
1 55818U 23029Y   24028.31709220  .00000054  00000+0  10241-3 0  9992
2 55818  87.9201 118.3356 0001186  72.4062 287.7200 13.19725131 44041
ONEWEB-0658             
1 55819U 23029Z   24028.31237118  .00000043  00000+0  75924-4 0  9993
2 55819  87.9200 118.2733 0002381  94.7871 265.3534 13.19725050 44055
ONEWEB-0660             
1 55820U 23029AA  24028.56755301  .00000168  00000+0  41951-3 0  9991
2 55820  87.8962 102.9750 0002391 109.8756 250.2632 13.14504325 45026
